NORAD_CAT_ID,OBJECT_NAME,OBJECT_TYPE,EPOCH,MEAN_MOTION,ECCENTRICITY,INCLINATION,RA_OF_ASC_NODE,ARG_OF_PERICENTER,MEAN_ANOMALY,BSTAR,MEAN_MOTION_DOT,MEAN_MOTION_DDOT,TLE_LINE0,TLE_LINE1,TLE_LINE2,SEMIMAJOR_AXIS,PERIOD,APOGEE,PERIGEE,DECAYED
51861.0,STARLINK-3562,PAYLOAD,2022-12-04 09:15:56,15.08832625,0.0002322,53.2179,317.0853,37.8521,322.2634,0.00016834,2.391e-05,0.0,0 STARLINK-3562,1 51861U 22022K   22338.38607278  .00002391  00000-0  16834-3 0  9998,2 51861  53.2179 317.0853 0002322  37.8521 322.2634 15.08832625 43180,6917.903,95.438,541.374,538.1619999999998,0.0
51861.0,STARLINK-3562,PAYLOAD,2022-12-04 15:37:29,15.08836445,0.0002576,53.2179,315.8945,30.8348,329.2795,4.765e-05,4.7e-06,0.0,0 STARLINK-3562,1 51861U 22022K   22338.65103451  .00000470  00000-0  47650-4 0  9999,2 51861  53.2179 315.8945 0002576  30.8348 329.2795 15.08836445 43223,6917.891,95.438,541.538,537.974,0.0
51861.0,STARLINK-3562,PAYLOAD,2022-12-05 10:42:06,15.08848268,0.0002526,53.2192,312.3252,27.6428,332.4699,2.7791e-05,1.54e-06,0.0,0 STARLINK-3562,1 51861U 22022K   22339.44590515  .00000154  00000-0  27791-4 0  9991,2 51861  53.2192 312.3252 0002526  27.6428 332.4699 15.08848268 43415,6917.855,95.437,541.4680000000002,537.9730000000002,0.0
51861.0,STARLINK-3562,PAYLOAD,2022-12-06 07:22:06,15.08854708,0.0002565,53.2187,308.4598,33.6692,326.4463,8.3729e-05,1.045e-05,0.0,0 STARLINK-3562,1 51861U 22022K   22340.30701665  .00001045  00000-0  83729-4 0  9991,2 51861  53.2187 308.4598 0002565  33.6692 326.4463 15.08854708 43475,6917.835,95.437,541.475,537.9259999999998,0.0
51861.0,STARLINK-3562,PAYLOAD,2022-12-06 15:19:02,15.08843244,0.000269,53.2196,306.9731,35.4185,324.6985,-6.4276e-05,-1.311e-05,0.0,0 STARLINK-3562,1 51861U 22022K   22340.63822751 -.00001311  00000-0 -64276-4 0  9991,2 51861  53.2196 306.9731 0002690  35.4185 324.6985 15.08843244 43521,6917.87,95.437,541.596,537.875,0.0
51861.0,STARLINK-3562,PAYLOAD,2022-12-07 07:12:54,15.08833386,0.0002793,53.2183,304.0002,33.8643,326.2527,-1.1475e-05,-4.71e-06,0.0,0 STARLINK-3562,1 51861U 22022K   22341.30063527 -.00000471  00000-0 -11475-4 0  9993,2 51861  53.2183 304.0002 0002793  33.8643 326.2527 15.08833386 43696,6917.901,95.438,541.698,537.8330000000002,0.0
51861.0,STARLINK-3562,PAYLOAD,2022-12-08 07:03:40,15.08850095,0.0002309,53.2192,299.5368,39.3275,320.7885,8.232799999999999e-05,1.023e-05,0.0,0 STARLINK-3562,1 51861U 22022K   22342.29422109  .00001023  00000-0  82328-4 0  9994,2 51861  53.2192 299.5368 0002309  39.3275 320.7885 15.08850095 43775,6917.85,95.437,541.312,538.117,0.0
51861.0,STARLINK-3562,PAYLOAD,2022-12-09 03:43:41,15.0884996,0.0002361,53.2171,295.6731,30.1741,329.9387,0.00064387,9.977e-05,0.0,0 STARLINK-3562,1 51861U 22022K   22343.15534153  .00009977  00000-0  64387-3 0  9993,2 51861  53.2171 295.6731 0002361  30.1741 329.9387 15.08849960 43900,6917.85,95.437,541.3480000000002,538.082,0.0
51861.0,STARLINK-3562,PAYLOAD,2022-12-10 03:34:30,15.08817158,0.000223,53.2178,291.2123,31.9811,328.1316,-0.00032434,-5.443e-05,0.0,0 STARLINK-3562,1 51861U 22022K   22344.14896031 -.00005443  00000-0 -32434-3 0  9993,2 51861  53.2178 291.2123 0002230  31.9811 328.1316 15.08817158 44128,6917.95,95.439,541.3580000000002,538.273,0.0
51861.0,STARLINK-3562,PAYLOAD,2022-12-10 06:45:16,15.08827214,0.0002348,53.2174,290.6185,27.2435,332.86800000000005,-0.00015864,-2.811e-05,0.0,0 STARLINK-3562,1 51861U 22022K   22344.28143713 -.00002811  00000-0 -15864-3 0  9994,2 51861  53.2174 290.6185 0002348  27.2435 332.8680 15.08827214 44079,6917.919,95.438,541.409,538.16,0.0
51861.0,STARLINK-3562,PAYLOAD,2022-12-11 05:00:40,15.0884078,0.0002433,53.2179,286.4586,30.8713,329.2421,0.00029149,4.354e-05,0.0,0 STARLINK-3562,1 51861U 22022K   22345.20879707  .00004354  00000-0  29149-3 0  9999,2 51861  53.2179 286.4586 0002433  30.8713 329.2421 15.08840780 44285,6917.878000000002,95.438,541.4259999999998,538.06,0.0
51861.0,STARLINK-3562,PAYLOAD,2022-12-12 04:51:27,15.08835452,0.0002672,53.2171,281.9944,28.7957,331.3182,0.00017332,2.471e-05,0.0,0 STARLINK-3562,1 51861U 22022K   22346.20240291  .00002471  00000-0  17332-3 0  9999,2 51861  53.2171 281.9944 0002672  28.7957 331.3182 15.08835452 44431,6917.894,95.438,541.6080000000002,537.911,0.0
51861.0,STARLINK-3562,PAYLOAD,2022-12-13 04:42:14,15.08846484,0.0002592,53.2169,277.5332,26.9249,333.1878,0.00012278,1.667e-05,0.0,0 STARLINK-3562,1 51861U 22022K   22347.19599670  .00001667  00000-0  12278-3 0  9996,2 51861  53.2169 277.5332 0002592  26.9249 333.1878 15.08846484 44580,6917.861,95.437,541.519,537.932,0.0
51861.0,STARLINK-3562,PAYLOAD,2022-12-13 12:39:09,15.08851336,0.0002525,53.2169,276.0466,27.0206,333.0917,-0.00024801,-4.235e-05,0.0,0 STARLINK-3562,1 51861U 22022K   22347.52719239 -.00004235  00000-0 -24801-3 0  9999,2 51861  53.2169 276.0466 0002525  27.0206 333.0917 15.08851336 44566,6917.846,95.437,541.457,537.964,0.0
51861.0,STARLINK-3562,PAYLOAD,2022-12-13 19:00:42,15.08834562,0.0002517,53.2168,274.8588,27.4496,332.6629,4.73e-05,4.64e-06,0.0,0 STARLINK-3562,1 51861U 22022K   22347.79216264  .00000464  00000-0  47300-4 0  9996,2 51861  53.2168 274.8588 0002517  27.4496 332.6629 15.08834562 44604,6917.897,95.438,541.503,538.021,0.0
51861.0,STARLINK-3562,PAYLOAD,2022-12-14 04:33:02,15.08834774,0.0002426,53.2178,273.0753,30.7166,329.3967,3.3425e-05,2.44e-06,0.0,0 STARLINK-3562,1 51861U 22022K   22348.18960771  .00000244  00000-0  33425-4 0  9998,2 51861  53.2178 273.0753 0002426  30.7166 329.3967 15.08834774 44737,6917.896,95.438,541.44,538.0830000000002,0.0
51861.0,STARLINK-3562,PAYLOAD,2022-12-14 12:29:58,15.08827442,0.0002572,53.2174,271.5878,27.2448,332.8679,-5.459100000000001e-05,-1.157e-05,0.0,0 STARLINK-3562,1 51861U 22022K   22348.52081554 -.00001157  00000-0 -54591-4 0  9992,2 51861  53.2174 271.5878 0002572  27.2448 332.8679 15.08827442 44711,6917.919,95.438,541.563,538.004,0.0
51861.0,STARLINK-3562,PAYLOAD,2022-12-15 04:23:48,15.088421599999998,0.0002673,53.2175,268.6137,27.0711,333.042,5.5988e-05,6.03e-06,0.0,0 STARLINK-3562,1 51861U 22022K   22349.18320574  .00000603  00000-0  55988-4 0  9997,2 51861  53.2175 268.6137 0002673  27.0711 333.0420 15.08842160 44889,6917.874,95.437,541.5880000000002,537.89,0.0
51861.0,STARLINK-3562,PAYLOAD,2022-12-16 04:14:35,15.0886443,0.0002607,53.2159,264.1534,29.5074,330.6065,0.00058282,9.006e-05,0.0,0 STARLINK-3562,1 51861U 22022K   22350.17679679  .00009006  00000-0  58282-3 0  9996,2 51861  53.2159 264.1534 0002607  29.5074 330.6065 15.08864430 45039,6917.806,95.436,541.474,537.867,0.0
51861.0,STARLINK-3562,PAYLOAD,2022-12-16 18:33:03,15.0885922,0.0002678,53.2151,261.4757,31.2543,328.8608,0.00024881,3.676e-05,0.0,0 STARLINK-3562,1 51861U 22022K   22350.77295235  .00003676  00000-0  24881-3 0  9999,2 51861  53.2151 261.4757 0002678  31.2543 328.8608 15.08859220 45120,6917.821999999999,95.436,541.539,537.8340000000002,0.0
51861.0,STARLINK-3562,PAYLOAD,2022-12-17 02:29:58,15.08844523,0.000262,53.216,259.99,30.5826,329.5319,-0.00019516,-3.394e-05,0.0,0 STARLINK-3562,1 51861U 22022K   22351.10415379 -.00003394  00000-0 -19516-3 0  9998,2 51861  53.2160 259.9900 0002620  30.5826 329.5319 15.08844523 45177,6917.8669999999975,95.437,541.544,537.919,0.0
51861.0,STARLINK-3562,PAYLOAD,2022-12-17 04:05:21,15.08846457,0.000262,53.2159,259.6925,30.0715,330.0427,-0.00010016,-1.883e-05,0.0,0 STARLINK-3562,1 51861U 22022K   22351.17039324 -.00001883  00000-0 -10016-3 0  9994,2 51861  53.2159 259.6925 0002620  30.0715 330.0427 15.08846457 45110,6917.861,95.437,541.538,537.913,0.0
51861.0,STARLINK-3562,PAYLOAD,2022-12-17 18:23:50,15.08841007,0.000259,53.2158,257.0159,30.7834,329.331,0.00054106,8.334e-05,0.0,0 STARLINK-3562,1 51861U 22022K   22351.76655590  .00008334  00000-0  54106-3 0  9992,2 51861  53.2158 257.0159 0002590  30.7834 329.3310 15.08841007 45203,6917.877,95.437,541.534,537.951,0.0
51861.0,STARLINK-3562,PAYLOAD,2022-12-18 03:56:09,15.08836934,0.0002648999999999,53.2163,255.2327,27.9802,332.1332,0.00019624,2.836e-05,0.0,0 STARLINK-3562,1 51861U 22022K   22352.16399739  .00002836  00000-0  19624-3 0  9994,2 51861  53.2163 255.2327 0002649  27.9802 332.1332 15.08836934 45337,6917.89,95.438,541.587,537.922,0.0
51861.0,STARLINK-3562,PAYLOAD,2022-12-18 10:17:42,15.0883585,0.000263,53.216,254.0429,28.2749,331.8385,5.231600000000001e-05,5.44e-06,0.0,0 STARLINK-3562,1 51861U 22022K   22352.42895844  .00000544  00000-0  52316-4 0  9991,2 51861  53.2160 254.0429 0002630  28.2749 331.8385 15.08835850 45305,6917.893,95.438,541.577,537.939,0.0
51861.0,STARLINK-3562,PAYLOAD,2022-12-19 10:08:29,15.08841638,0.0002721,53.2168,249.5832,30.9064,329.2088,0.00018615,2.676e-05,0.0,0 STARLINK-3562,1 51861U 22022K   22353.42255934  .00002676  00000-0  18615-3 0  9993,2 51861  53.2168 249.5832 0002721  30.9064 329.2088 15.08841638 45527,6917.875,95.437,541.623,537.8580000000002,0.0
51861.0,STARLINK-3562,PAYLOAD,2022-12-20 09:59:15,15.08845958,0.0002583,53.216,245.1226,28.5606,331.5527,0.00019992,2.895e-05,0.0,0 STARLINK-3562,1 51861U 22022K   22354.41615690  .00002895  00000-0  19992-3 0  9994,2 51861  53.2160 245.1226 0002583  28.5606 331.5527 15.08845958 45601,6917.861999999999,95.437,541.514,537.94,0.0
51861.0,STARLINK-3562,PAYLOAD,2022-12-20 21:06:58,15.08835175,0.0002566999999999,53.2161,243.0412,29.7699,330.3439,2.0766e-05,4.2e-07,0.0,0 STARLINK-3562,1 51861U 22022K   22354.87984179  .00000042  00000-0  20766-4 0  9999,2 51861  53.2161 243.0412 0002567  29.7699 330.3439 15.08835175 45747,6917.895,95.438,541.536,537.984,0.0
51861.0,STARLINK-3562,PAYLOAD,2022-12-21 09:50:03,15.08845045,0.0002683,53.2168,240.6617,28.0784,332.0352,5.4099e-05,5.73e-06,0.0,0 STARLINK-3562,1 51861U 22022K   22355.40975815  .00000573  00000-0  54099-4 0  9991,2 51861  53.2168 240.6617 0002683  28.0784 332.0352 15.08845045 45751,6917.865,95.437,541.586,537.874,0.0
